"zipcode","county","city"
"100","Taipei City","Zhongzheng District"
"103","Taipei City","Daton District"
"104","Taipei City","Zhongshan District"
"105","Taipei City","Songshan District"
"106","Taipei City","Da'an District"
"108","Taipei City","Wanhua Disrict"
"110","Taipei City","Xinyi District"
"111","Taipei City","Shilin District"
"112","Taipei City","Beitou District"
"114","Taipei City","Neihu District"
"115","Taipei City","Nangang District"
"116","Taipei City","Wenshan District"
"200","Keelung City","Ren'ai District"
"201","Keelung City","Xinyi District"
"202","Keelung City","Zhongzheng District"
"203","Keelung City","Zhongshan District"
"204","Keelung City","Anle District"
"205","Keelung City","Nuannuan District"
"206","Keelung City","Qidu District"
"207","New Taipei City","Wanli District"
"208","New Taipei City","Jinshan District"
"220","New Taipei City","Banqiao District"
"221","New Taipei City","Xizhi District"
"222","New Taipei City","Shenkeng District"
"223","New Taipei City","Shiding District"
"224","New Taipei City","Ruifang District"
"226","New Taipei City","Pingxi District"
"227","New Taipei City","Shuangxi District"
"228","New Taipei City","Gongliao District"
"231","New Taipei City","Xindian Distict"
"232","New Taipei City","Pinglin District"
"233","New Taipei City","Wulai District"
"234","New Taipei City","Yonghe District"
"235","New Taipei City","Zhonghe District"
"236","New Taipei City","Tucheng District"
"237","New Taipei City","Sanxia District"
"238","New Taipei City","Shulin District"
"239","New Taipei City","Yingge District"
"241","New Taipei City","Sanchong District"
"242","New Taipei City","Xinzhuang District"
"243","New Taipei City","Taishan District"
"244","New Taipei City","Linkou District"
"247","New Taipei City","Luzhou District"
"248","New Taipei City","Wugu District"
"249","New Taipei City","Bali District"
"251","New Taipei City","Tamsui District"
"252","New Taipei City","Sanzhi District"
"253","New Taipei City","Shimen District"
"260","Yilan County","Yilan City"
"261","Yilan County","Toucheng Township"
"262","Yilan County","Jiaoxi Township"
"263","Yilan County","Zhuangwei Township"
"264","Yilan County","Yuanshan Township"
"265","Yilan County","Luodong Township"
"266","Yilan County","Sanxing Township"
"267","Yilan County","Datong Township"
"268","Yilan County","Wujie Township"
"269","Yilan County","Dongshan Township"
"270","Yilan County","Su'ao Township"
"272","Yilan County","Nan'ao Township"
"290","Yilan County","Diaoyu Islands"
"300","Hsinchu City","Hsinchu City"
"302","HsinChu County","Zhubei City"
"303","HsinChu County","Hukou Township"
"304","HsinChu County","Xinfeng Township"
"305","HsinChu County","Xinpu Township"
"306","HsinChu County","Guanxi Township"
"307","HsinChu County","Qionglin Township"
"308","HsinChu County","Baoshan Township"
"310","HsinChu County","Zhudong Township"
"311","HsinChu County","Wufeng Township"
"312","HsinChu County","Hengshan Township"
"313","HsinChu County","Jianshi Township"
"314","HsinChu County","Beipu Township"
"315","HsinChu County","Emei Township"
"320","Taoyuan City","Zhongli District"
"324","Taoyuan City","Pingzhen District"
"325","Taoyuan City","Longtan District"
"326","Taoyuan City","Yangmei District"
"327","Taoyuan City","Xinwu District"
"328","Taoyuan City","Guanyin District"
"330","Taoyuan City","Taoyuan District"
"333","Taoyuan City","Guishan District"
"334","Taoyuan City","Bade District"
"335","Taoyuan City","Daxi District"
"336","Taoyuan City","Fuxing District"
"337","Taoyuan City","Dayuan District"
"338","Taoyuan City","Luzhu District"
"350","Miaoli County","Zhunan Township"
"351","Miaoli County","Toufen Town"
"352","Miaoli County","Sanwan Township"
"353","Miaoli County","Nanzhuang Township"
"354","Miaoli County","Shitan Township"
"356","Miaoli County","Houlong Township"
"357","Miaoli County","Tongxiao Township"
"358","Miaoli County","Yuanli Township"
"360","Miaoli County","Miaoli City"
"361","Miaoli County","Zaoqiao Township"
"362","Miaoli County","Touwu Township"
"363","Miaoli County","Gongguan Township"
"364","Miaoli County","Dahu Township"
"365","Miaoli County","Tai'an Township"
"366","Miaoli County","Tongluo Township"
"367","Miaoli County","Sanyi Township"
"368","Miaoli County","Xihu Township"
"369","Miaoli County","Zhuolan Township"
"400","Taichung City","Central District"
"401","Taichung City","East District"
"402","Taichung City","South District"
"403","Taichung City","West District"
"404","Taichung City","North District"
"406","Taichung City","Beitun District"
"407","Taichung City","Xitun District"
"408","Taichung City","Nantun District"
"411","Taichung City","Taiping District"
"412","Taichung City","Dali District"
"413","Taichung City","Wufeng District"
"414","Taichung City","Wuri District"
"420","Taichung City","Fengyuan District"
"421","Taichung City","Houli District"
"422","Taichung City","Shigang District"
"423","Taichung City","Dongshi District"
"424","Taichung City","Heping District"
"426","Taichung City","Xinshe District"
"427","Taichung City","Tanzi District"
"428","Taichung City","Daya District"
"429","Taichung City","Shengang District"
"432","Taichung City","Dadu District"
"433","Taichung City","Shalu District"
"434","Taichung City","Longjing District"
"435","Taichung City","Wuqi District"
"436","Taichung City","Qingshui District"
"437","Taichung City","Dajia District"
"438","Taichung City","Waipu District"
"439","Taichung City","Da'an District"
"500","Changhua County","Changhua City"
"502","Changhua County","Fenyuan Township"
"503","Changhua County","Huatan Township"
"504","Changhua County","Xiushui Township"
"505","Changhua County","Lukang Township"
"506","Changhua County","Fuxing Township"
"507","Changhua County","Xianxi Township"
"508","Changhua County","Hemei Township"
"509","Changhua County","Shengang Township"
"510","Changhua County","Yuanlinå¸‚"
"511","Changhua County","Shetou Township"
"512","Changhua County","Yongjing Township"
"513","Changhua County","Puxin Township"
"514","Changhua County","Xihu Township"
"515","Changhua County","Dacun Township"
"516","Changhua County","Puyan Township"
"520","Changhua County","Tianzhong Township"
"521","Changhua County","Beidu Township"
"522","Changhua County","Tianwei Township"
"523","Changhua County","Pitou Township"
"524","Changhua County","Xizhou Township"
"525","Changhua County","Zhutang Township"
"526","Changhua County","Erlin Township"
"527","Changhua County","Dacheng Township"
"528","Changhua County","Fangyuan Township"
"530","Changhua County","Ershui Township"
"540","Nantou County","Nantou City"
"541","Nantou County","Zhongliao Township"
"542","Nantou County","Caotun Township"
"544","Nantou County","Guoxing Township"
"545","Nantou County","Puli Township"
"546","Nantou County","Ren'ai Township"
"551","Nantou County","Mingjian Township"
"552","Nantou County","Jiji Township"
"553","Nantou County","Shuili Township"
"555","Nantou County","Yuchi Township"
"556","Nantou County","Xinyi Township"
"557","Nantou County","Zhushan Township"
"558","Nantou County","Lugu Township"
"600","Chiayi City","Chiayi City"
"602","Chiayi County","Fanlu Township"
"603","Chiayi County","Meishan Township"
"604","Chiayi County","Zhuqi Township"
"605","Chiayi County","Alishan Township"
"606","Chiayi County","Zhongpu Township"
"607","Chiayi County","Dapu Township"
"608","Chiayi County","Shuishang Township"
"611","Chiayi County","Lucao Township"
"612","Chiayi County","Taibao City"
"613","Chiayi County","Puzi City"
"614","Chiayi County","Dongshi Township"
"615","Chiayi County","Liujiao Township"
"616","Chiayi County","Xingang Township"
"621","Chiayi County","Minxiong Township"
"622","Chiayi County","Dalin Township"
"623","Chiayi County","Xikou Township"
"624","Chiayi County","Yizhu Township"
"625","Chiayi County","Budai Township"
"630","Yunlin County","Dounan Township"
"631","Yunlin County","Dapi Township"
"632","Yunlin County","Huwei Township"
"633","Yunlin County","Tuku Township"
"634","Yunlin County","Baozhong Township"
"635","Yunlin County","Dongshi Township"
"636","Yunlin County","Taixi Township"
"637","Yunlin County","Lunbei Township"
"638","Yunlin County","Mailiao Township"
"640","Yunlin County","Douliu City"
"643","Yunlin County","Linnei Township"
"646","Yunlin County","Gukeng Township"
"647","Yunlin County","Citong Township"
"648","Yunlin County","Xiluo Township"
"649","Yunlin County","Erlun Township"
"651","Yunlin County","Beigang Township"
"652","Yunlin County","Shuilin Township"
"653","Yunlin County","Kouhu Township"
"654","Yunlin County","Sihu Township"
"655","Yunlin County","Yuanchang Township"
"700","Tainan City","West Central District"
"701","Tainan City","East District"
"702","Tainan City","South District"
"704","Tainan City","North District"
"708","Tainan City","Anping District"
"709","Tainan City","Annan District"
"710","Tainan City","Yongkang District"
"711","Tainan City","Guiren District"
"712","Tainan City","Xinhua District"
"713","Tainan City","Zuozhen District"
"714","Tainan City","Yujing District"
"715","Tainan City","Nanxi District"
"716","Tainan City","Nanhua District"
"717","Tainan City","Rende District"
"718","Tainan City","Guanmiao District"
"719","Tainan City","Longqi District"
"720","Tainan City","Guantian District"
"721","Tainan City","Madou District"
"722","Tainan City","Jiali District"
"723","Tainan City","Xigang District"
"724","Tainan City","Qigu District"
"725","Tainan City","Jiangjun District"
"726","Tainan City","Xuejia District"
"727","Tainan City","Beimen District"
"730","Tainan City","Xinying District"
"731","Tainan City","Houbi District"
"732","Tainan City","Baihe District"
"733","Tainan City","Dongshan District"
"734","Tainan City","Liujia District"
"735","Tainan City","Xiaying District"
"736","Tainan City","Liuying District"
"737","Tainan City","Yanshui District"
"741","Tainan City","Shanhua District"
"742","Tainan City","Danei District"
"743","Tainan City","Shanshang District"
"744","Tainan City","Xinshi District"
"745","Tainan City","Anding District"
"800","Kaohsiung City","Xinxing District"
"801","Kaohsiung City","Qianjin District"
"802","Kaohsiung City","Lingya District"
"803","Kaohsiung City","Yancheng District"
"804","Kaohsiung City","Gushan District"
"805","Kaohsiung City","Qijin District"
"806","Kaohsiung City","Qianzhen District"
"807","Kaohsiung City","Sanmin District"
"811","Kaohsiung City","Nanzi District"
"812","Kaohsiung City","Xiaogang District"
"813","Kaohsiung City","Zouying District"
"814","Kaohsiung City","Renwu District"
"815","Kaohsiung City","Dashe District"
"820","Kaohsiung City","Gangshan District"
"821","Kaohsiung City","Luzhu District"
"822","Kaohsiung City","Alian District"
"823","Kaohsiung City","Tianliao District"
"824","Kaohsiung City","Yanchao District"
"825","Kaohsiung City","Qiaotou District"
"826","Kaohsiung City","Ziguan District"
"827","Kaohsiung City","Mituo District"
"828","Kaohsiung City","Yong'an District"
"829","Kaohsiung City","Hunei District"
"830","Kaohsiung City","Fengshan District"
"831","Kaohsiung City","Daliao District"
"832","Kaohsiung City","Linyuan District"
"833","Kaohsiung City","Niaosong District"
"840","Kaohsiung City","Dashu District"
"842","Kaohsiung City","Qishan District"
"843","Kaohsiung City","Meinong District"
"844","Kaohsiung City","Liugui District"
"845","Kaohsiung City","Neimen District"
"846","Kaohsiung City","Shanlin District"
"847","Kaohsiung City","Jiaxian District"
"848","Kaohsiung City","Taoyuan District"
"849","Kaohsiung City","Namaxia District"
"851","Kaohsiung City","Maolin District"
"852","Kaohsiung City","Qieding District"
"817","Kaohsiung City","Dongsha Islands"
"819","Kaohsiung City","Spratly Islands"
"880","Penghu County","Magong City"
"881","Penghu County","Xiyu Township"
"882","Penghu County","Wang'an Township"
"883","Penghu County","Qimei Township"
"884","Penghu County","Baisha Township"
"885","Penghu County","Huxi Township"
"900","Pingtung County","Pingdong City"
"901","Pingtung County","Sandimen Township"
"902","Pingtung County","Wutai Township"
"903","Pingtung County","Majia Township"
"904","Pingtung County","Jiuru Township"
"905","Pingtung County","Ligang Township"
"906","Pingtung County","Gaoshu Township"
"907","Pingtung County","Yanpu Township"
"908","Pingtung County","Changzhi Township"
"909","Pingtung County","Linluo Township"
"911","Pingtung County","Zhutian Township"
"912","Pingtung County","Neipu Township"
"913","Pingtung County","Wandan Township"
"920","Pingtung County","Chaozhou Township"
"921","Pingtung County","Taiwu Township"
"922","Pingtung County","Laiyi Township"
"923","Pingtung County","Wanluan Township"
"924","Pingtung County","Kanding Township"
"925","Pingtung County","Xinpi Township"
"926","Pingtung County","Nanzhou Township"
"927","Pingtung County","Linbian Township"
"928","Pingtung County","Donggang Township"
"929","Pingtung County","Liuqiu Township"
"931","Pingtung County","Jiadong Township"
"932","Pingtung County","Xinyuan Township"
"940","Pingtung County","Fangliao Township"
"941","Pingtung County","Fangshan Township"
"942","Pingtung County","Chunri Township"
"943","Pingtung County","Shizi Township"
"944","Pingtung County","Checheng Township"
"945","Pingtung County","Mudan Township"
"946","Pingtung County","Hengchu Township"
"947","Pingtung County","Manzhou Township"
"950","Taitung County","Taitung City"
"951","Taitung County","Ludao Township"
"952","Taitung County","Lanyu Township"
"953","Taitung County","Yangping Township"
"954","Taitung County","Beinan Township"
"955","Taitung County","Luye Township"
"956","Taitung County","Guanshan Township"
"957","Taitung County","Haiduan Township"
"958","Taitung County","Chishang Township"
"959","Taitung County","Donghe Township"
"961","Taitung County","Chenggong Township"
"962","Taitung County","Changbin Township"
"963","Taitung County","Taimali Township"
"964","Taitung County","Jinfeng Township"
"965","Taitung County","Dawu Township"
"966","Taitung County","Daren Township"
"970","Hualien County","Hualien City"
"971","Hualien County","Xincheng Township"
"972","Hualien County","Xiulin Township"
"973","Hualien County","Ji'an Township"
"974","Hualien County","Shoufeng Township"
"975","Hualien County","Fenglin Township"
"976","Hualien County","Guangfu Township"
"977","Hualien County","Fengbin Township"
"978","Hualien County","Ruisui Township"
"979","Hualien County","Wanrong Township"
"981","Hualien County","Yuli Township"
"982","Hualien County","Zhuoxi Township"
"983","Hualien County","Fuli Township"
"890","Kinmen County","Jinsha Township"
"891","Kinmen County","Jinhu Township"
"892","Kinmen County","Jinning Township"
"893","Kinmen County","Jincheng Township"
"894","Kinmen County","Lieyu Township"
"896","Kinmen County","Wuqiu Township"
"209","Lienchiang County","Nangan Township"
"210","Lienchiang County","Beigan Township"
"211","Lienchiang County","Juguan Township"
"212","Lienchiang County","Dongyin Township"